*******************************************************************************
Ephemeris / WWW_USER Mon Mar 24 11:00:22 2025 Pasadena, USA      / Horizons    
*******************************************************************************
Target body name: (2018 SL3)                      {source: JPL#9}
Center body name: Earth (399)                     {source: DE441}
Center-site name: Mauna Kea
*******************************************************************************
Start time      : A.D. 2018-Aug-02 05:08:00.0000 UT      
Stop  time      : A.D. 2018-Aug-02 15:48:00.0000 UT      
Step-size       : 1 minutes
*******************************************************************************
Target pole/equ : undefined
Target radii    : undefined                                                    
Center geodetic : 204.5278, 19.8260847, 4.21024   {E-lon(deg),Lat(deg),Alt(km)}
Center cylindric: 204.5278, 6006.35451, 2151.0229 {E-lon(deg),Dxy(km),Dz(km)}
Center pole/equ : ITRF93                          {East-longitude positive}
Center radii    : 6378.137, 6378.137, 6356.752 km {Equator_a, b, pole_c}       
Target primary  : Sun
Vis. interferer : MOON (R_eq= 1737.400) km        {source: DE441}
Rel. light bend : Sun                             {source: DE441}
Rel. lght bnd GM: 1.3271E+11 km^3/s^2                                          
Small-body perts: Yes                             {source: SB441-N16}
Atmos refraction: NO (AIRLESS)
RA format       : HMS
Time format     : CAL 
Calendar mode   : Mixed Julian/Gregorian
RTS-only print  : NO       
EOP file        : eop.250321.p250617                                           
EOP coverage    : DATA-BASED 1962-JAN-20 TO 2025-MAR-21. PREDICTS-> 2025-JUN-16
Units conversion: 1 au= 149597870.700 km, c= 299792.458 km/s, 1 day= 86400.0 s 
Table cut-offs 1: Elevation (-90.0deg=NO ),Airmass (>38.000=NO), Daylight (YES)
Table cut-offs 2: Solar elongation (  0.0,180.0=NO ),Local Hour Angle( 0.0=NO )
Table cut-offs 3: RA/DEC angular rate (     0.0=NO )                           
*******************************************************************************
Initial IAU76/J2000 heliocentric ecliptic osculating elements (au, days, deg.):
  EPOCH=  2458395.5 ! 2018-Oct-04.00 (TDB)         Residual RMS= .22865        
   EC= .523832704749462    QR= .7523817427125933   TP= 2458455.4342692108      
   OM= 5.37828463666876    W=  89.37669799750542   IN= 4.07069530013935        
  Equivalent ICRF heliocentric cartesian coordinates (au, au/d):
   X= 1.077301312774806E+00  Y= 1.718701187822678E-01  Z= 8.135917115484240E-02
  VX=-1.117713770282307E-02 VY= 1.338322199759621E-02 VZ= 7.048365308861806E-03
Asteroid physical parameters (km, seconds, rotational period in hours):        
   GM= n.a.                RAD= n.a.               ROTPER= n.a.                
   H= 24.5                 G= .150                 B-V= n.a.                   
                           ALBEDO= n.a.            STYP= n.a.                  
*******************************************************************************
 Date__(UT)__HR:MN     R.A._________(ICRF)_________DEC
******************************************************
$$SOE
 2018-Aug-02 09:14  m  00 20 00.205077 -02 51 04.54826
 2018-Aug-02 09:15  m  00 20 00.243800 -02 51 04.32096
 2018-Aug-02 09:16  m  00 20 00.282509 -02 51 04.09366
 2018-Aug-02 09:17  m  00 20 00.321205 -02 51 03.86636
 2018-Aug-02 09:18  m  00 20 00.359887 -02 51 03.63906
 2018-Aug-02 09:19  m  00 20 00.398556 -02 51 03.41176
 2018-Aug-02 09:20  m  00 20 00.437212 -02 51 03.18445
 2018-Aug-02 09:21  m  00 20 00.475854 -02 51 02.95715
 2018-Aug-02 09:22  m  00 20 00.514483 -02 51 02.72984
 2018-Aug-02 09:23  m  00 20 00.553098 -02 51 02.50253
 2018-Aug-02 09:24  m  00 20 00.591700 -02 51 02.27522
 2018-Aug-02 09:25  m  00 20 00.630289 -02 51 02.04790
 2018-Aug-02 09:26  m  00 20 00.668865 -02 51 01.82059
 2018-Aug-02 09:27  m  00 20 00.707427 -02 51 01.59327
 2018-Aug-02 09:28  m  00 20 00.745976 -02 51 01.36595
 2018-Aug-02 09:29  m  00 20 00.784512 -02 51 01.13863
 2018-Aug-02 09:30  m  00 20 00.823034 -02 51 00.91131
 2018-Aug-02 09:31  m  00 20 00.861543 -02 51 00.68398
 2018-Aug-02 09:32  m  00 20 00.900040 -02 51 00.45666
 2018-Aug-02 09:33  m  00 20 00.938523 -02 51 00.22933
 2018-Aug-02 09:34  m  00 20 00.976993 -02 51 00.00200
 2018-Aug-02 09:35  m  00 20 01.015450 -02 50 59.77467
 2018-Aug-02 09:36  m  00 20 01.053893 -02 50 59.54733
 2018-Aug-02 09:37  m  00 20 01.092324 -02 50 59.31999
 2018-Aug-02 09:38  m  00 20 01.130742 -02 50 59.09265
 2018-Aug-02 09:39  m  00 20 01.169147 -02 50 58.86531
 2018-Aug-02 09:40  m  00 20 01.207539 -02 50 58.63797
 2018-Aug-02 09:41  m  00 20 01.245918 -02 50 58.41062
 2018-Aug-02 09:42  m  00 20 01.284284 -02 50 58.18327
 2018-Aug-02 09:43  m  00 20 01.322637 -02 50 57.95592
 2018-Aug-02 09:44  m  00 20 01.360977 -02 50 57.72857
 2018-Aug-02 09:45  m  00 20 01.399304 -02 50 57.50121
 2018-Aug-02 09:46  m  00 20 01.437619 -02 50 57.27385
 2018-Aug-02 09:47  m  00 20 01.475921 -02 50 57.04649
 2018-Aug-02 09:48  m  00 20 01.514210 -02 50 56.81912
 2018-Aug-02 09:49  m  00 20 01.552486 -02 50 56.59176
 2018-Aug-02 09:50  m  00 20 01.590750 -02 50 56.36439
 2018-Aug-02 09:51  m  00 20 01.629001 -02 50 56.13702
 2018-Aug-02 09:52  m  00 20 01.667239 -02 50 55.90964
 2018-Aug-02 09:53  m  00 20 01.705465 -02 50 55.68226
 2018-Aug-02 09:54  m  00 20 01.743678 -02 50 55.45488
 2018-Aug-02 09:55  m  00 20 01.781878 -02 50 55.22750
 2018-Aug-02 09:56  m  00 20 01.820066 -02 50 55.00011
 2018-Aug-02 09:57  m  00 20 01.858242 -02 50 54.77272
 2018-Aug-02 09:58  m  00 20 01.896405 -02 50 54.54533
 2018-Aug-02 09:59  m  00 20 01.934555 -02 50 54.31793
 2018-Aug-02 10:00  m  00 20 01.972694 -02 50 54.09053
 2018-Aug-02 10:01  m  00 20 02.010819 -02 50 53.86313
 2018-Aug-02 10:02  m  00 20 02.048933 -02 50 53.63572
 2018-Aug-02 10:03  m  00 20 02.087034 -02 50 53.40832
 2018-Aug-02 10:04  m  00 20 02.125123 -02 50 53.18090
 2018-Aug-02 10:05  m  00 20 02.163199 -02 50 52.95349
 2018-Aug-02 10:06  m  00 20 02.201263 -02 50 52.72607
 2018-Aug-02 10:07  m  00 20 02.239316 -02 50 52.49865
 2018-Aug-02 10:08  m  00 20 02.277356 -02 50 52.27122
 2018-Aug-02 10:09  m  00 20 02.315383 -02 50 52.04379
 2018-Aug-02 10:10  m  00 20 02.353399 -02 50 51.81636
 2018-Aug-02 10:11  m  00 20 02.391403 -02 50 51.58893
 2018-Aug-02 10:12  m  00 20 02.429394 -02 50 51.36149
 2018-Aug-02 10:13  m  00 20 02.467374 -02 50 51.13404
 2018-Aug-02 10:14  m  00 20 02.505341 -02 50 50.90660
 2018-Aug-02 10:15  m  00 20 02.543297 -02 50 50.67915
 2018-Aug-02 10:16  m  00 20 02.581241 -02 50 50.45169
 2018-Aug-02 10:17  m  00 20 02.619173 -02 50 50.22424
 2018-Aug-02 10:18  m  00 20 02.657093 -02 50 49.99677
 2018-Aug-02 10:19  m  00 20 02.695001 -02 50 49.76931
 2018-Aug-02 10:20  m  00 20 02.732897 -02 50 49.54184
 2018-Aug-02 10:21  m  00 20 02.770782 -02 50 49.31437
 2018-Aug-02 10:22  m  00 20 02.808655 -02 50 49.08689
 2018-Aug-02 10:23  m  00 20 02.846516 -02 50 48.85941
 2018-Aug-02 10:24  m  00 20 02.884366 -02 50 48.63192
 2018-Aug-02 10:25  m  00 20 02.922204 -02 50 48.40444
 2018-Aug-02 10:26  m  00 20 02.960030 -02 50 48.17694
 2018-Aug-02 10:27  m  00 20 02.997845 -02 50 47.94945
 2018-Aug-02 10:28  m  00 20 03.035649 -02 50 47.72195
 2018-Aug-02 10:29  m  00 20 03.073441 -02 50 47.49444
 2018-Aug-02 10:30  m  00 20 03.111221 -02 50 47.26693
 2018-Aug-02 10:31  m  00 20 03.148991 -02 50 47.03942
 2018-Aug-02 10:32  m  00 20 03.186748 -02 50 46.81190
 2018-Aug-02 10:33  m  00 20 03.224495 -02 50 46.58438
 2018-Aug-02 10:34  m  00 20 03.262230 -02 50 46.35685
 2018-Aug-02 10:35  m  00 20 03.299954 -02 50 46.12932
 2018-Aug-02 10:36  m  00 20 03.337667 -02 50 45.90179
 2018-Aug-02 10:37  m  00 20 03.375369 -02 50 45.67425
 2018-Aug-02 10:38  m  00 20 03.413059 -02 50 45.44670
 2018-Aug-02 10:39  m  00 20 03.450739 -02 50 45.21915
 2018-Aug-02 10:40  m  00 20 03.488407 -02 50 44.99160
 2018-Aug-02 10:41  m  00 20 03.526064 -02 50 44.76404
 2018-Aug-02 10:42  m  00 20 03.563711 -02 50 44.53648
 2018-Aug-02 10:43  m  00 20 03.601346 -02 50 44.30891
 2018-Aug-02 10:44  m  00 20 03.638971 -02 50 44.08134
 2018-Aug-02 10:45  m  00 20 03.676585 -02 50 43.85377
 2018-Aug-02 10:46  m  00 20 03.714188 -02 50 43.62619
 2018-Aug-02 10:47  m  00 20 03.751780 -02 50 43.39860
 2018-Aug-02 10:48  m  00 20 03.789361 -02 50 43.17101
 2018-Aug-02 10:49  m  00 20 03.826932 -02 50 42.94342
 2018-Aug-02 10:50  m  00 20 03.864492 -02 50 42.71582
 2018-Aug-02 10:51  m  00 20 03.902041 -02 50 42.48821
 2018-Aug-02 10:52  m  00 20 03.939580 -02 50 42.26060
 2018-Aug-02 10:53  m  00 20 03.977108 -02 50 42.03299
 2018-Aug-02 10:54  m  00 20 04.014626 -02 50 41.80537
 2018-Aug-02 10:55  m  00 20 04.052134 -02 50 41.57774
 2018-Aug-02 10:56  m  00 20 04.089631 -02 50 41.35011
 2018-Aug-02 10:57  m  00 20 04.127117 -02 50 41.12248
 2018-Aug-02 10:58  m  00 20 04.164594 -02 50 40.89484
 2018-Aug-02 10:59  m  00 20 04.202060 -02 50 40.66719
 2018-Aug-02 11:00  m  00 20 04.239515 -02 50 40.43954
 2018-Aug-02 11:01  m  00 20 04.276961 -02 50 40.21189
 2018-Aug-02 11:02  m  00 20 04.314396 -02 50 39.98423
 2018-Aug-02 11:03  m  00 20 04.351822 -02 50 39.75656
 2018-Aug-02 11:04  m  00 20 04.389237 -02 50 39.52889
 2018-Aug-02 11:05  m  00 20 04.426642 -02 50 39.30121
 2018-Aug-02 11:06  m  00 20 04.464037 -02 50 39.07353
 2018-Aug-02 11:07  m  00 20 04.501422 -02 50 38.84584
 2018-Aug-02 11:08  m  00 20 04.538798 -02 50 38.61815
 2018-Aug-02 11:09  m  00 20 04.576163 -02 50 38.39045
 2018-Aug-02 11:10  m  00 20 04.613519 -02 50 38.16275
 2018-Aug-02 11:11  m  00 20 04.650865 -02 50 37.93504
 2018-Aug-02 11:12  m  00 20 04.688201 -02 50 37.70733
 2018-Aug-02 11:13  m  00 20 04.725528 -02 50 37.47961
 2018-Aug-02 11:14  m  00 20 04.762845 -02 50 37.25188
 2018-Aug-02 11:15  m  00 20 04.800152 -02 50 37.02415
 2018-Aug-02 11:16  m  00 20 04.837450 -02 50 36.79641
